{
  "norad_id": 54179,
  "name": "STARLINK-5122",
  "history": [
    {
      "epoch": "2026-03-28T19:07:29.972352Z",
      "apogee_km": 540.7394005750257,
      "perigee_km": 538.7271304721899,
      "latitude_deg": 1.7790543451453612e-05,
      "longitude_deg": 165.14985701681158,
      "height_km": 540.6259299953255,
      "semi_major_axis_km": 6917.8702655236075,
      "eccentricity": 0.00014544,
      "inclination_deg": 53.2163,
      "raan_deg": 278.2369,
      "arg_perigee_deg": 89.841,
      "mean_anomaly_deg": 270.2749,
      "mean_motion_rev_day": 15.08843312
    },
    {
      "epoch": "2026-03-30T18:49:04.250208Z",
      "apogee_km": 540.7238618346,
      "perigee_km": 538.7810417609571,
      "latitude_deg": -2.320344590170972e-06,
      "longitude_deg": 158.8771430438202,
      "height_km": 540.6587212460231,
      "semi_major_axis_km": 6917.889451797779,
      "eccentricity": 0.00014042,
      "inclination_deg": 53.2171,
      "raan_deg": 269.3157,
      "arg_perigee_deg": 90.6286,
      "mean_anomaly_deg": 269.4867,
      "mean_motion_rev_day": 15.08837035
    },
    {
      "epoch": "2026-03-31T18:39:51.203808Z",
      "apogee_km": 540.6580275186498,
      "perigee_km": 538.8289399187552,
      "latitude_deg": -4.820729643706825e-05,
      "longitude_deg": 155.7415344034432,
      "height_km": 540.6269563191428,
      "semi_major_axis_km": 6917.880483718703,
      "eccentricity": 0.0001322,
      "inclination_deg": 53.2169,
      "raan_deg": 264.8551,
      "arg_perigee_deg": 89.2331,
      "mean_anomaly_deg": 270.8812,
      "mean_motion_rev_day": 15.08839969
    },
    {
      "epoch": "2026-04-01T18:30:38.996352Z",
      "apogee_km": 540.7416059472171,
      "perigee_km": 538.7962907945348,
      "latitude_deg": -1.4868759497538653e-05,
      "longitude_deg": 152.6038794216983,
      "height_km": 540.6947759049608,
      "semi_major_axis_km": 6917.905948370876,
      "eccentricity": 0.0001406,
      "inclination_deg": 53.2182,
      "raan_deg": 260.3959,
      "arg_perigee_deg": 91.7734,
      "mean_anomaly_deg": 268.3419,
      "mean_motion_rev_day": 15.08831638
    },
    {
      "epoch": "2026-04-02T10:24:30.050496Z",
      "apogee_km": 540.6739752227995,
      "perigee_km": 538.8179072296671,
      "latitude_deg": 1.0124714983554585e-05,
      "longitude_deg": -89.48591475436584,
      "height_km": 540.6467516554771,
      "semi_major_axis_km": 6917.882941226233,
      "eccentricity": 0.00013415,
      "inclination_deg": 53.2189,
      "raan_deg": 257.4217,
      "arg_perigee_deg": 90.3038,
      "mean_anomaly_deg": 269.8108,
      "mean_motion_rev_day": 15.08839165
    },
    {
      "epoch": "2026-04-03T19:47:37.782240Z",
      "apogee_km": 540.5489221954413,
      "perigee_km": 539.011899305121,
      "latitude_deg": 1.738938727129888e-05,
      "longitude_deg": 122.11528239459035,
      "height_km": 540.6010348832477,
      "semi_major_axis_km": 6917.91741075028,
      "eccentricity": 0.00011109,
      "inclination_deg": 53.2167,
      "raan_deg": 251.1762,
      "arg_perigee_deg": 84.3733,
      "mean_anomaly_deg": 275.7386,
      "mean_motion_rev_day": 15.08827888
    },
    {
      "epoch": "2026-04-05T14:43:01.525440Z",
      "apogee_km": 540.7356729900566,
      "perigee_km": 538.8788967439996,
      "latitude_deg": 7.272820082817322e-06,
      "longitude_deg": -171.524852921267,
      "height_km": 540.6002683075595,
      "semi_major_axis_km": 6917.944284867028,
      "eccentricity": 0.0001342,
      "inclination_deg": 53.2153,
      "raan_deg": 243.1478,
      "arg_perigee_deg": 83.6595,
      "mean_anomaly_deg": 276.455,
      "mean_motion_rev_day": 15.08819096
    },
    {
      "epoch": "2026-04-05T16:18:24.742656Z",
      "apogee_km": 540.6935127254947,
      "perigee_km": 538.9031510616005,
      "latitude_deg": -9.740419898924596e-07,
      "longitude_deg": 164.26641237817353,
      "height_km": 540.5358909113488,
      "semi_major_axis_km": 6917.935331893547,
      "eccentricity": 0.0001294,
      "inclination_deg": 53.2157,
      "raan_deg": 242.8511,
      "arg_perigee_deg": 79.8287,
      "mean_anomaly_deg": 280.2851,
      "mean_motion_rev_day": 15.08822025
    },
    {
      "epoch": "2026-04-05T16:18:24.743520Z",
      "apogee_km": 540.6937894429084,
      "perigee_km": 538.9028743441868,
      "latitude_deg": -4.580206122724162e-06,
      "longitude_deg": 164.2664060868608,
      "height_km": 540.5358420419235,
      "semi_major_axis_km": 6917.935331893547,
      "eccentricity": 0.00012944,
      "inclination_deg": 53.2157,
      "raan_deg": 242.8511,
      "arg_perigee_deg": 79.8287,
      "mean_anomaly_deg": 280.2851,
      "mean_motion_rev_day": 15.08822025
    },
    {
      "epoch": "2026-04-06T16:09:11.114784Z",
      "apogee_km": 540.5349713997421,
      "perigee_km": 538.8937803393301,
      "latitude_deg": -2.0385572369754132e-06,
      "longitude_deg": 161.13126291272363,
      "height_km": 540.5979890584445,
      "semi_major_axis_km": 6917.851375869535,
      "eccentricity": 0.00011862,
      "inclination_deg": 53.2158,
      "raan_deg": 238.3885,
      "arg_perigee_deg": 89.1505,
      "mean_anomaly_deg": 270.9623,
      "mean_motion_rev_day": 15.08849492
    },
    {
      "epoch": "2026-04-07T19:10:44.297184Z",
      "apogee_km": 540.6039441484818,
      "perigee_km": 538.8620244864296,
      "latitude_deg": -3.0199942015819537e-05,
      "longitude_deg": 109.57816520210787,
      "height_km": 540.6175845921355,
      "semi_major_axis_km": 6917.869984317455,
      "eccentricity": 0.0001259,
      "inclination_deg": 53.2163,
      "raan_deg": 233.3336,
      "arg_perigee_deg": 89.2675,
      "mean_anomaly_deg": 270.8461,
      "mean_motion_rev_day": 15.08843404
    },
    {
      "epoch": "2026-04-08T14:15:22.694688Z",
      "apogee_km": 540.7654649943834,
      "perigee_km": 538.7692345152191,
      "latitude_deg": -1.9738745333642772e-05,
      "longitude_deg": 179.06770274605222,
      "height_km": 540.7156481548286,
      "semi_major_axis_km": 6917.904349754801,
      "eccentricity": 0.00014428,
      "inclination_deg": 53.2175,
      "raan_deg": 229.7666,
      "arg_perigee_deg": 93.0263,
      "mean_anomaly_deg": 267.0894,
      "mean_motion_rev_day": 15.08832161
    },
    {
      "epoch": "2026-04-09T12:30:46.140768Z",
      "apogee_km": 540.7723404045655,
      "perigee_km": 538.7343299118274,
      "latitude_deg": 5.517411950323771e-05,
      "longitude_deg": -159.85757882811276,
      "height_km": 540.7380313675063,
      "semi_major_axis_km": 6917.890335158196,
      "eccentricity": 0.0001473,
      "inclination_deg": 53.2185,
      "raan_deg": 225.603,
      "arg_perigee_deg": 95.0125,
      "mean_anomaly_deg": 265.1036,
      "mean_motion_rev_day": 15.08836746
    },
    {
      "epoch": "2026-04-09T20:27:41.726592Z",
      "apogee_km": 540.7386757705481,
      "perigee_km": 538.7532433611532,
      "latitude_deg": -4.376393174544778e-05,
      "longitude_deg": 79.09749450404604,
      "height_km": 540.653293937936,
      "semi_major_axis_km": 6917.88295956585,
      "eccentricity": 0.0001435,
      "inclination_deg": 53.216,
      "raan_deg": 224.1162,
      "arg_perigee_deg": 90.6854,
      "mean_anomaly_deg": 269.4302,
      "mean_motion_rev_day": 15.08839159
    },
    {
      "epoch": "2026-04-11T13:47:43.610784Z",
      "apogee_km": 540.8575423607099,
      "perigee_km": 538.6369015254668,
      "latitude_deg": 8.364596911392413e-07,
      "longitude_deg": 169.66015198137254,
      "height_km": 540.6254093449935,
      "semi_major_axis_km": 6917.884221943088,
      "eccentricity": 0.0001605,
      "inclination_deg": 53.2147,
      "raan_deg": 216.3842,
      "arg_perigee_deg": 89.1285,
      "mean_anomaly_deg": 270.9891,
      "mean_motion_rev_day": 15.08838746
    },
    {
      "epoch": "2026-04-12T18:24:39.753792Z",
      "apogee_km": 540.5759772530582,
      "perigee_km": 538.8932741588214,
      "latitude_deg": 6.708290825971321e-05,
      "longitude_deg": 93.89857024725104,
      "height_km": 540.6880583812053,
      "semi_major_axis_km": 6917.87162570594,
      "eccentricity": 0.00012162,
      "inclination_deg": 53.216,
      "raan_deg": 211.0317,
      "arg_perigee_deg": 93.9313,
      "mean_anomaly_deg": 266.1819,
      "mean_motion_rev_day": 15.08842867
    },
    {
      "epoch": "2026-04-14T13:20:04.696224Z",
      "apogee_km": 540.6410801739848,
      "perigee_km": 538.861384247366,
      "latitude_deg": -2.269034904703499e-05,
      "longitude_deg": 160.25286859219443,
      "height_km": 540.5971852309273,
      "semi_major_axis_km": 6917.888232210675,
      "eccentricity": 0.00012863,
      "inclination_deg": 53.2171,
      "raan_deg": 203.0028,
      "arg_perigee_deg": 86.7899,
      "mean_anomaly_deg": 273.324,
      "mean_motion_rev_day": 15.08837434
    },
    {
      "epoch": "2026-04-15T16:21:38.115360Z",
      "apogee_km": 540.5873172206075,
      "perigee_km": 538.9104216858523,
      "latitude_deg": -1.8711330687861244e-05,
      "longitude_deg": 108.69891086817232,
      "height_km": 540.5575867425757,
      "semi_major_axis_km": 6917.88586945323,
      "eccentricity": 0.0001212,
      "inclination_deg": 53.2167,
      "raan_deg": 197.948,
      "arg_perigee_deg": 84.0351,
      "mean_anomaly_deg": 276.0779,
      "mean_motion_rev_day": 15.08838207
    },
    {
      "epoch": "2026-04-16T13:01:39.235872Z",
      "apogee_km": 540.6090149825613,
      "perigee_km": 538.9099796028258,
      "latitude_deg": -8.384268732251251e-06,
      "longitude_deg": 153.97988878654542,
      "height_km": 540.5701471332483,
      "semi_major_axis_km": 6917.896497292693,
      "eccentricity": 0.0001228,
      "inclination_deg": 53.2164,
      "raan_deg": 194.0824,
      "arg_perigee_deg": 84.248,
      "mean_anomaly_deg": 275.8652,
      "mean_motion_rev_day": 15.0883473
    },
    {
      "epoch": "2026-04-17T22:24:45.106560Z",
      "apogee_km": 540.5722407347266,
      "perigee_km": 538.9297957614353,
      "latitude_deg": 1.2305362689913945e-05,
      "longitude_deg": 5.590073159401098,
      "height_km": 540.5927051672112,
      "semi_major_axis_km": 6917.888018248081,
      "eccentricity": 0.00011871,
      "inclination_deg": 53.2171,
      "raan_deg": 187.8381,
      "arg_perigee_deg": 86.2139,
      "mean_anomaly_deg": 273.8989,
      "mean_motion_rev_day": 15.08837504
    }
  ]
}